SKYSAT-C7               
1 42991U 17068E   25334.83690503  .00012110  00000+0  39482-3 0  9991
2 42991  97.4274 105.8403 0007907  94.1878 266.0267 15.31926743451955
SKYSAT-C6               
1 42992U 17068F   25334.80924294  .00011479  00000+0  38426-3 0  9990
2 42992  97.4308 106.2605 0005104 116.4113 243.7653 15.31106125451933
CARTOSAT-2F             
1 43111U 18004A   25332.19249595  .00001165  00000+0  58427-4 0  9994
2 43111  97.4340  30.0638 0000769 229.2981 130.8187 15.19277789436810
GAOFEN-1 02             
1 43259U 18031A   25334.86493296  .00000999  00000+0  15115-3 0  9992
2 43259  98.0823  32.6487 0001281 274.3235  85.7828 14.76439409413433
GAOFEN-1 03             
1 43260U 18031B   25332.06421597  .00001145  00000+0  17191-3 0  9999
2 43260  98.0818  29.7254 0002787   6.5663 353.5582 14.76498173413010
GAOFEN-1 04             
1 43262U 18031D   25334.88646072  .00001011  00000+0  15290-3 0  9990
2 43262  98.0825  32.7165 0001440  64.3409 295.7949 14.76408954413427
SENTINEL-3B             
1 43437U 18039A   25334.79224799  .00000142  00000+0  76648-4 0  9999
2 43437  98.6283  40.1479 0001458 114.0674 246.0659 14.26735256395836
GAOFEN-5 01             
1 43461U 18043A   25334.86391038  .00000495  00000+0  11245-3 0  9992
2 43461  98.4310 297.6251 0001742  16.9068 343.2190 14.60387530402747
