{
  "type": "FeatureCollection",
  "features": [
    {
      "type": "Feature",
      "properties": {
        "norad_id": 42991,
        "name": "SKYSAT-C7",
        "group": "resource",
        "lat": NaN,
        "lon": NaN,
        "alt_km": NaN,
        "timestamp": "2025-12-01T03:03:40.644567+00:00",
        "meta": {
          "OBJECT_NAME": "SKYSAT-C7",
          "OBJECT_ID": "2017-068E",
          "EPOCH": "2025-11-30T20:05:08.594592",
          "MEAN_MOTION": 15.31926743,
          "ECCENTRICITY": 0.0007907,
          "INCLINATION": 97.4274,
          "RA_OF_ASC_NODE": 105.8403,
          "ARG_OF_PERICENTER": 94.1878,
          "MEAN_ANOMALY": 266.0267,
          "EPHEMERIS_TYPE": 0,
          "CLASSIFICATION_TYPE": "U",
          "NORAD_CAT_ID": 42991,
          "ELEMENT_SET_NO": 999,
          "REV_AT_EPOCH": 45195,
          "BSTAR": 0.00039482,
          "MEAN_MOTION_DOT": 0.0001211,
          "MEAN_MOTION_DDOT": 0
        }
      },
      "geometry": {
        "type": "Point",
        "coordinates": [
          NaN,
          NaN
        ]
      }
    },
    {
      "type": "Feature",
      "properties": {
        "norad_id": 42992,
        "name": "SKYSAT-C6",
        "group": "resource",
        "lat": NaN,
        "lon": NaN,
        "alt_km": NaN,
        "timestamp": "2025-12-01T03:03:40.644571+00:00",
        "meta": {
          "OBJECT_NAME": "SKYSAT-C6",
          "OBJECT_ID": "2017-068F",
          "EPOCH": "2025-11-30T19:25:18.590016",
          "MEAN_MOTION": 15.31106125,
          "ECCENTRICITY": 0.0005104,
          "INCLINATION": 97.4308,
          "RA_OF_ASC_NODE": 106.2605,
          "ARG_OF_PERICENTER": 116.4113,
          "MEAN_ANOMALY": 243.7653,
          "EPHEMERIS_TYPE": 0,
          "CLASSIFICATION_TYPE": "U",
          "NORAD_CAT_ID": 42992,
          "ELEMENT_SET_NO": 999,
          "REV_AT_EPOCH": 45193,
          "BSTAR": 0.00038426,
          "MEAN_MOTION_DOT": 0.00011479,
          "MEAN_MOTION_DDOT": 0
        }
      },
      "geometry": {
        "type": "Point",
        "coordinates": [
          NaN,
          NaN
        ]
      }
    },
    {
      "type": "Feature",
      "properties": {
        "norad_id": 43111,
        "name": "CARTOSAT-2F",
        "group": "resource",
        "lat": NaN,
        "lon": NaN,
        "alt_km": NaN,
        "timestamp": "2025-12-01T03:03:40.644581+00:00",
        "meta": {
          "OBJECT_NAME": "CARTOSAT-2F",
          "OBJECT_ID": "2018-004A",
          "EPOCH": "2025-11-28T04:37:11.650080",
          "MEAN_MOTION": 15.19277789,
          "ECCENTRICITY": 7.695e-05,
          "INCLINATION": 97.434,
          "RA_OF_ASC_NODE": 30.0638,
          "ARG_OF_PERICENTER": 229.2981,
          "MEAN_ANOMALY": 130.8187,
          "EPHEMERIS_TYPE": 0,
          "CLASSIFICATION_TYPE": "U",
          "NORAD_CAT_ID": 43111,
          "ELEMENT_SET_NO": 999,
          "REV_AT_EPOCH": 43681,
          "BSTAR": 5.842651e-05,
          "MEAN_MOTION_DOT": 1.165e-05,
          "MEAN_MOTION_DDOT": 0
        }
      },
      "geometry": {
        "type": "Point",
        "coordinates": [
          NaN,
          NaN
        ]
      }
    },
    {
      "type": "Feature",
      "properties": {
        "norad_id": 43259,
        "name": "GAOFEN-1 02",
        "group": "resource",
        "lat": NaN,
        "lon": NaN,
        "alt_km": NaN,
        "timestamp": "2025-12-01T03:03:40.644592+00:00",
        "meta": {
          "OBJECT_NAME": "GAOFEN-1 02",
          "OBJECT_ID": "2018-031A",
          "EPOCH": "2025-11-30T20:45:30.207744",
          "MEAN_MOTION": 14.76439409,
          "ECCENTRICITY": 0.0001281,
          "INCLINATION": 98.0823,
          "RA_OF_ASC_NODE": 32.6487,
          "ARG_OF_PERICENTER": 274.3235,
          "MEAN_ANOMALY": 85.7828,
          "EPHEMERIS_TYPE": 0,
          "CLASSIFICATION_TYPE": "U",
          "NORAD_CAT_ID": 43259,
          "ELEMENT_SET_NO": 999,
          "REV_AT_EPOCH": 41343,
          "BSTAR": 0.00015115,
          "MEAN_MOTION_DOT": 9.99e-06,
          "MEAN_MOTION_DDOT": 0
        }
      },
      "geometry": {
        "type": "Point",
        "coordinates": [
          NaN,
          NaN
        ]
      }
    },
    {
      "type": "Feature",
      "properties": {
        "norad_id": 43260,
        "name": "GAOFEN-1 03",
        "group": "resource",
        "lat": NaN,
        "lon": NaN,
        "alt_km": NaN,
        "timestamp": "2025-12-01T03:03:40.644597+00:00",
        "meta": {
          "OBJECT_NAME": "GAOFEN-1 03",
          "OBJECT_ID": "2018-031B",
          "EPOCH": "2025-11-28T01:32:28.259808",
          "MEAN_MOTION": 14.76498173,
          "ECCENTRICITY": 0.00027871,
          "INCLINATION": 98.0818,
          "RA_OF_ASC_NODE": 29.7254,
          "ARG_OF_PERICENTER": 6.5663,
          "MEAN_ANOMALY": 353.5582,
          "EPHEMERIS_TYPE": 0,
          "CLASSIFICATION_TYPE": "U",
          "NORAD_CAT_ID": 43260,
          "ELEMENT_SET_NO": 999,
          "REV_AT_EPOCH": 41301,
          "BSTAR": 0.00017190576,
          "MEAN_MOTION_DOT": 1.145e-05,
          "MEAN_MOTION_DDOT": 0
        }
      },
      "geometry": {
        "type": "Point",
        "coordinates": [
          NaN,
          NaN
        ]
      }
    },
    {
      "type": "Feature",
      "properties": {
        "norad_id": 43262,
        "name": "GAOFEN-1 04",
        "group": "resource",
        "lat": NaN,
        "lon": NaN,
        "alt_km": NaN,
        "timestamp": "2025-12-01T03:03:40.644602+00:00",
        "meta": {
          "OBJECT_NAME": "GAOFEN-1 04",
          "OBJECT_ID": "2018-031D",
          "EPOCH": "2025-11-30T21:16:30.206208",
          "MEAN_MOTION": 14.76408954,
          "ECCENTRICITY": 0.000144,
          "INCLINATION": 98.0825,
          "RA_OF_ASC_NODE": 32.7165,
          "ARG_OF_PERICENTER": 64.3409,
          "MEAN_ANOMALY": 295.7949,
          "EPHEMERIS_TYPE": 0,
          "CLASSIFICATION_TYPE": "U",
          "NORAD_CAT_ID": 43262,
          "ELEMENT_SET_NO": 999,
          "REV_AT_EPOCH": 41342,
          "BSTAR": 0.0001529,
          "MEAN_MOTION_DOT": 1.011e-05,
          "MEAN_MOTION_DDOT": 0
        }
      },
      "geometry": {
        "type": "Point",
        "coordinates": [
          NaN,
          NaN
        ]
      }
    },
    {
      "type": "Feature",
      "properties": {
        "norad_id": 43437,
        "name": "SENTINEL-3B",
        "group": "resource",
        "lat": NaN,
        "lon": NaN,
        "alt_km": NaN,
        "timestamp": "2025-12-01T03:03:40.644609+00:00",
        "meta": {
          "OBJECT_NAME": "SENTINEL-3B",
          "OBJECT_ID": "2018-039A",
          "EPOCH": "2025-11-30T19:00:50.226336",
          "MEAN_MOTION": 14.26735256,
          "ECCENTRICITY": 0.0001458,
          "INCLINATION": 98.6283,
          "RA_OF_ASC_NODE": 40.1479,
          "ARG_OF_PERICENTER": 114.0674,
          "MEAN_ANOMALY": 246.0659,
          "EPHEMERIS_TYPE": 0,
          "CLASSIFICATION_TYPE": "U",
          "NORAD_CAT_ID": 43437,
          "ELEMENT_SET_NO": 999,
          "REV_AT_EPOCH": 39583,
          "BSTAR": 7.6648e-05,
          "MEAN_MOTION_DOT": 1.42e-06,
          "MEAN_MOTION_DDOT": 0
        }
      },
      "geometry": {
        "type": "Point",
        "coordinates": [
          NaN,
          NaN
        ]
      }
    },
    {
      "type": "Feature",
      "properties": {
        "norad_id": 43461,
        "name": "GAOFEN-5 01",
        "group": "resource",
        "lat": NaN,
        "lon": NaN,
        "alt_km": NaN,
        "timestamp": "2025-12-01T03:03:40.644614+00:00",
        "meta": {
          "OBJECT_NAME": "GAOFEN-5 01",
          "OBJECT_ID": "2018-043A",
          "EPOCH": "2025-11-30T20:44:01.856832",
          "MEAN_MOTION": 14.6038753,
          "ECCENTRICITY": 0.0001742,
          "INCLINATION": 98.431,
          "RA_OF_ASC_NODE": 297.6251,
          "ARG_OF_PERICENTER": 16.9068,
          "MEAN_ANOMALY": 343.219,
          "EPHEMERIS_TYPE": 0,
          "CLASSIFICATION_TYPE": "U",
          "NORAD_CAT_ID": 43461,
          "ELEMENT_SET_NO": 999,
          "REV_AT_EPOCH": 40274,
          "BSTAR": 0.00011245,
          "MEAN_MOTION_DOT": 4.95e-06,
          "MEAN_MOTION_DDOT": 0
        }
      },
      "geometry": {
        "type": "Point",
        "coordinates": [
          NaN,
          NaN
        ]
      }
    }
  ]
}